QIANFAN-41              
1 62242U 24232F   25258.55118112  .00000070  00000+0  89352-4 0  9992
2 62242  88.9969  50.0874 0015866  87.4657 272.8310 13.50969794 87342
QIANFAN-42              
1 62243U 24232G   25258.54006013  .00000281  00000+0  11519-3 0  9991
2 62243  88.9969  47.4203 0015513  21.4161 338.7677 14.24349080 88819
QIANFAN-43              
1 62244U 24232H   25258.54709507  .00000070  00000+0  89229-4 0  9990
2 62244  88.9973  50.1492 0017406  92.0734 268.2411 13.50967117 55956
QIANFAN-44              
1 62245U 24232J   25258.53474302  .00000107  00000+0  14736-3 0  9993
2 62245  88.9972  49.9626 0015609  89.5339 270.7601 13.50972602 87427
QIANFAN-45              
1 62246U 24232K   25258.57588235  .00000070  00000+0  89454-4 0  9998
2 62246  88.9975  50.1019 0016254  89.0892 271.2122 13.50969254 87352
QIANFAN-46              
1 62247U 24232L   25258.52648967  .00000073  00000+0  93805-4 0  9991
2 62247  88.9971  50.1795 0016348  94.0831 266.2189 13.50969896 87307
QIANFAN-47              
1 62248U 24232M   25258.53062266  .00000071  00000+0  90578-4 0  9997
2 62248  88.9967  50.1155 0016771  93.3087 266.9983 13.50963390 87333
QIANFAN-48              
1 62249U 24232N   25258.56766395  .00000084  00000+0  11104-3 0  9996
2 62249  88.9971  50.1102 0019026  95.5418 264.7904 13.50967045 87340
